<?xml version="1.0" encoding="UTF-8"?>
<kml xmlns="http://www.opengis.net/kml/2.2">
  <Document>
    <name>Anubhav</name>
    <description>A simple KML file with a few placemarks</description>

    <Placemark>
      <name>Google HQ</name>
      <description>Googleplex in Mountain View, CA</description>
      <Point>
        <coordinates>-122.084,37.422,0</coordinates>
      </Point>
    </Placemark>

    <Placemark>
      <name>Eiffel Tower</name>
      <description>Famous landmark in Paris</description>
      <Point>
        <coordinates>2.2945,48.8584,0</coordinates>
      </Point>
    </Placemark>

    <Placemark>
      <name>Taj Mahal</name>
      <description>Famous landmark in Agra, India</description>
      <Point>
        <coordinates>78.0421,27.1751,0</coordinates>
      </Point>
    </Placemark>

  </Document>
</kml>
